CCSDS_OMM_VERS = 2.0
CREATION_DATE  = 
ORIGINATOR     = 

OBJECT_NAME    = STARLINK-35384
OBJECT_ID      = 2025-224C
CENTER_NAME    = EARTH
REF_FRAME      = TEME
TIME_SYSTEM    = UTC
MEAN_ELEMENT_THEORY = SGP/SGP4

EPOCH          = 2025-11-01T14:00:01.999872
MEAN_MOTION    = 15.49253690
ECCENTRICITY   = .00013605
INCLINATION    = 53.1599
RA_OF_ASC_NODE = 248.2505
ARG_OF_PERICENTER = 103.2580
MEAN_ANOMALY   = 287.0852

EPHEMERIS_TYPE = 0
CLASSIFICATION_TYPE = U
NORAD_CAT_ID   = 65884
ELEMENT_SET_NO = 999
REV_AT_EPOCH   = 524
BSTAR          = .17736798E-2
MEAN_MOTION_DOT = .99265E-3
MEAN_MOTION_DDOT = 0

CCSDS_OMM_VERS = 2.0
CREATION_DATE  = 
ORIGINATOR     = 

OBJECT_NAME    = STARLINK-35415
OBJECT_ID      = 2025-224D
CENTER_NAME    = EARTH
REF_FRAME      = TEME
TIME_SYSTEM    = UTC
MEAN_ELEMENT_THEORY = SGP/SGP4

EPOCH          = 2025-11-01T14:00:01.999872
MEAN_MOTION    = 15.49264812
ECCENTRICITY   = .00014787
INCLINATION    = 53.1597
RA_OF_ASC_NODE = 248.2432
ARG_OF_PERICENTER = 100.9761
MEAN_ANOMALY   = 293.1803

EPHEMERIS_TYPE = 0
CLASSIFICATION_TYPE = U
NORAD_CAT_ID   = 65885
ELEMENT_SET_NO = 999
REV_AT_EPOCH   = 519
BSTAR          = .98922724E-3
MEAN_MOTION_DOT = .5487E-3
MEAN_MOTION_DDOT = 0

CCSDS_OMM_VERS = 2.0
CREATION_DATE  = 
ORIGINATOR     = 

OBJECT_NAME    = STARLINK-35413
OBJECT_ID      = 2025-224E
CENTER_NAME    = EARTH
REF_FRAME      = TEME
TIME_SYSTEM    = UTC
MEAN_ELEMENT_THEORY = SGP/SGP4

EPOCH          = 2025-11-01T14:00:01.999872
MEAN_MOTION    = 15.49254628
ECCENTRICITY   = .0002044
INCLINATION    = 53.1597
RA_OF_ASC_NODE = 248.2350
ARG_OF_PERICENTER = 90.1507
MEAN_ANOMALY   = 307.8565

EPHEMERIS_TYPE = 0
CLASSIFICATION_TYPE = U
NORAD_CAT_ID   = 65886
ELEMENT_SET_NO = 999
REV_AT_EPOCH   = 519
BSTAR          = .19257135E-2
MEAN_MOTION_DOT = .107938E-2
MEAN_MOTION_DDOT = 0

CCSDS_OMM_VERS = 2.0
CREATION_DATE  = 
ORIGINATOR     = 

OBJECT_NAME    = STARLINK-35332
OBJECT_ID      = 2025-224F
CENTER_NAME    = EARTH
REF_FRAME      = TEME
TIME_SYSTEM    = UTC
MEAN_ELEMENT_THEORY = SGP/SGP4

EPOCH          = 2025-11-01T14:00:01.999872
MEAN_MOTION    = 15.49256892
ECCENTRICITY   = .00021121
INCLINATION    = 53.1596
RA_OF_ASC_NODE = 248.2309
ARG_OF_PERICENTER = 93.9801
MEAN_ANOMALY   = 305.9469

EPHEMERIS_TYPE = 0
CLASSIFICATION_TYPE = U
NORAD_CAT_ID   = 65887
ELEMENT_SET_NO = 999
REV_AT_EPOCH   = 527
BSTAR          = .14336317E-2
MEAN_MOTION_DOT = .7996E-3
MEAN_MOTION_DDOT = 0

CCSDS_OMM_VERS = 2.0
CREATION_DATE  = 
ORIGINATOR     = 

OBJECT_NAME    = STARLINK-35362
OBJECT_ID      = 2025-224G
CENTER_NAME    = EARTH
REF_FRAME      = TEME
TIME_SYSTEM    = UTC
MEAN_ELEMENT_THEORY = SGP/SGP4

EPOCH          = 2025-11-01T14:00:01.999872
MEAN_MOTION    = 15.49310294
ECCENTRICITY   = .00013919
INCLINATION    = 53.1599
RA_OF_ASC_NODE = 248.2629
ARG_OF_PERICENTER = 98.2547
MEAN_ANOMALY   = 286.3275

EPHEMERIS_TYPE = 0
CLASSIFICATION_TYPE = U
NORAD_CAT_ID   = 65888
ELEMENT_SET_NO = 999
REV_AT_EPOCH   = 524
BSTAR          = -.4885489E-3
MEAN_MOTION_DOT = -.27525E-3
MEAN_MOTION_DDOT = 0

CCSDS_OMM_VERS = 2.0
CREATION_DATE  = 
ORIGINATOR     = 

OBJECT_NAME    = STARLINK-35193
OBJECT_ID      = 2025-224H
CENTER_NAME    = EARTH
REF_FRAME      = TEME
TIME_SYSTEM    = UTC
MEAN_ELEMENT_THEORY = SGP/SGP4

EPOCH          = 2025-11-01T14:00:01.999872
MEAN_MOTION    = 15.49252927
ECCENTRICITY   = .00014879
INCLINATION    = 53.1594
RA_OF_ASC_NODE = 247.9940
ARG_OF_PERICENTER = 101.5834
MEAN_ANOMALY   = 52.6094

EPHEMERIS_TYPE = 0
CLASSIFICATION_TYPE = U
NORAD_CAT_ID   = 65889
ELEMENT_SET_NO = 999
REV_AT_EPOCH   = 527
BSTAR          = .13043387E-2
MEAN_MOTION_DOT = .72627E-3
MEAN_MOTION_DDOT = 0

CCSDS_OMM_VERS = 2.0
CREATION_DATE  = 
ORIGINATOR     = 

OBJECT_NAME    = STARLINK-34542
OBJECT_ID      = 2025-224J
CENTER_NAME    = EARTH
REF_FRAME      = TEME
TIME_SYSTEM    = UTC
MEAN_ELEMENT_THEORY = SGP/SGP4

EPOCH          = 2025-11-01T14:00:01.999872
MEAN_MOTION    = 15.49324459
ECCENTRICITY   = .00013984
INCLINATION    = 53.1599
RA_OF_ASC_NODE = 248.2543
ARG_OF_PERICENTER = 89.7516
MEAN_ANOMALY   = 298.6723

EPHEMERIS_TYPE = 0
CLASSIFICATION_TYPE = U
NORAD_CAT_ID   = 65890
ELEMENT_SET_NO = 999
REV_AT_EPOCH   = 529
BSTAR          = -.11551144E-2
MEAN_MOTION_DOT = -.64202E-3
MEAN_MOTION_DDOT = 0

CCSDS_OMM_VERS = 2.0
CREATION_DATE  = 
ORIGINATOR     = 

OBJECT_NAME    = STARLINK-34791
OBJECT_ID      = 2025-224K
CENTER_NAME    = EARTH
REF_FRAME      = TEME
TIME_SYSTEM    = UTC
MEAN_ELEMENT_THEORY = SGP/SGP4

EPOCH          = 2025-11-01T14:00:01.999872
MEAN_MOTION    = 15.49324036
ECCENTRICITY   = .00011382
INCLINATION    = 53.1594
RA_OF_ASC_NODE = 248.0018
ARG_OF_PERICENTER = 101.6054
MEAN_ANOMALY   = 48.7506

EPHEMERIS_TYPE = 0
CLASSIFICATION_TYPE = U
NORAD_CAT_ID   = 65891
ELEMENT_SET_NO = 999
REV_AT_EPOCH   = 529
BSTAR          = -.11148556E-2
MEAN_MOTION_DOT = -.61995E-3
MEAN_MOTION_DDOT = 0

CCSDS_OMM_VERS = 2.0
CREATION_DATE  = 
ORIGINATOR     = 

OBJECT_NAME    = STARLINK-34853
OBJECT_ID      = 2025-224L
CENTER_NAME    = EARTH
REF_FRAME      = TEME
TIME_SYSTEM    = UTC
MEAN_ELEMENT_THEORY = SGP/SGP4

EPOCH          = 2025-11-01T14:00:01.999872
MEAN_MOTION    = 15.49254712
ECCENTRICITY   = .00014201
INCLINATION    = 53.1598
RA_OF_ASC_NODE = 248.2469
ARG_OF_PERICENTER = 97.2111
MEAN_ANOMALY   = 295.0441

EPHEMERIS_TYPE = 0
CLASSIFICATION_TYPE = U
NORAD_CAT_ID   = 65892
ELEMENT_SET_NO = 999
REV_AT_EPOCH   = 522
BSTAR          = .18155643E-2
MEAN_MOTION_DOT = .101655E-2
MEAN_MOTION_DDOT = 0

CCSDS_OMM_VERS = 2.0
CREATION_DATE  = 
ORIGINATOR     = 

OBJECT_NAME    = STARLINK-34921
OBJECT_ID      = 2025-224M
CENTER_NAME    = EARTH
REF_FRAME      = TEME
TIME_SYSTEM    = UTC
MEAN_ELEMENT_THEORY = SGP/SGP4

EPOCH          = 2025-11-01T14:00:01.999872
MEAN_MOTION    = 15.49260688
ECCENTRICITY   = .00014512
INCLINATION    = 53.1595
RA_OF_ASC_NODE = 247.9898
ARG_OF_PERICENTER = 99.1893
MEAN_ANOMALY   = 56.9227

EPHEMERIS_TYPE = 0
CLASSIFICATION_TYPE = U
NORAD_CAT_ID   = 65893
ELEMENT_SET_NO = 999
REV_AT_EPOCH   = 529
BSTAR          = .10802469E-2
MEAN_MOTION_DOT = .59991E-3
MEAN_MOTION_DDOT = 0

CCSDS_OMM_VERS = 2.0
CREATION_DATE  = 
ORIGINATOR     = 

OBJECT_NAME    = STARLINK-34672
OBJECT_ID      = 2025-224N
CENTER_NAME    = EARTH
REF_FRAME      = TEME
TIME_SYSTEM    = UTC
MEAN_ELEMENT_THEORY = SGP/SGP4

EPOCH          = 2025-11-01T14:00:01.999872
MEAN_MOTION    = 15.49315800
ECCENTRICITY   = .00014914
INCLINATION    = 53.1595
RA_OF_ASC_NODE = 247.9980
ARG_OF_PERICENTER = 98.0772
MEAN_ANOMALY   = 54.1964

EPHEMERIS_TYPE = 0
CLASSIFICATION_TYPE = U
NORAD_CAT_ID   = 65894
ELEMENT_SET_NO = 999
REV_AT_EPOCH   = 529
BSTAR          = -.83227398E-3
MEAN_MOTION_DOT = -.46474E-3
MEAN_MOTION_DDOT = 0

CCSDS_OMM_VERS = 2.0
CREATION_DATE  = 
ORIGINATOR     = 

OBJECT_NAME    = STARLINK-34898
OBJECT_ID      = 2025-224P
CENTER_NAME    = EARTH
REF_FRAME      = TEME
TIME_SYSTEM    = UTC
MEAN_ELEMENT_THEORY = SGP/SGP4

EPOCH          = 2025-11-01T14:00:01.999872
MEAN_MOTION    = 15.49258204
ECCENTRICITY   = .00016799
INCLINATION    = 53.1594
RA_OF_ASC_NODE = 247.9816
ARG_OF_PERICENTER = 100.9700
MEAN_ANOMALY   = 58.9700

EPHEMERIS_TYPE = 0
CLASSIFICATION_TYPE = U
NORAD_CAT_ID   = 65895
ELEMENT_SET_NO = 999
REV_AT_EPOCH   = 529
BSTAR          = .16183627E-2
MEAN_MOTION_DOT = .90445E-3
MEAN_MOTION_DDOT = 0

CCSDS_OMM_VERS = 2.0
CREATION_DATE  = 
ORIGINATOR     = 

OBJECT_NAME    = STARLINK-34906
OBJECT_ID      = 2025-224Q
CENTER_NAME    = EARTH
REF_FRAME      = TEME
TIME_SYSTEM    = UTC
MEAN_ELEMENT_THEORY = SGP/SGP4

EPOCH          = 2025-11-01T14:00:01.999872
MEAN_MOTION    = 15.49259239
ECCENTRICITY   = .00012833
INCLINATION    = 53.1594
RA_OF_ASC_NODE = 247.9856
ARG_OF_PERICENTER = 97.9947
MEAN_ANOMALY   = 60.0297

EPHEMERIS_TYPE = 0
CLASSIFICATION_TYPE = U
NORAD_CAT_ID   = 65896
ELEMENT_SET_NO = 999
REV_AT_EPOCH   = 529
BSTAR          = .14475666E-2
MEAN_MOTION_DOT = .80754E-3
MEAN_MOTION_DDOT = 0

CCSDS_OMM_VERS = 2.0
CREATION_DATE  = 
ORIGINATOR     = 

OBJECT_NAME    = STARLINK-34934
OBJECT_ID      = 2025-224R
CENTER_NAME    = EARTH
REF_FRAME      = TEME
TIME_SYSTEM    = UTC
MEAN_ELEMENT_THEORY = SGP/SGP4

EPOCH          = 2025-11-01T14:00:01.999872
MEAN_MOTION    = 15.49258368
ECCENTRICITY   = .00012785
INCLINATION    = 53.1593
RA_OF_ASC_NODE = 247.9736
ARG_OF_PERICENTER = 96.0671
MEAN_ANOMALY   = 67.7167

EPHEMERIS_TYPE = 0
CLASSIFICATION_TYPE = U
NORAD_CAT_ID   = 65897
ELEMENT_SET_NO = 999
REV_AT_EPOCH   = 524
BSTAR          = .10668178E-2
MEAN_MOTION_DOT = .59229E-3
MEAN_MOTION_DDOT = 0

CCSDS_OMM_VERS = 2.0
CREATION_DATE  = 
ORIGINATOR     = 

OBJECT_NAME    = STARLINK-34936
OBJECT_ID      = 2025-224S
CENTER_NAME    = EARTH
REF_FRAME      = TEME
TIME_SYSTEM    = UTC
MEAN_ELEMENT_THEORY = SGP/SGP4

EPOCH          = 2025-11-01T14:00:01.999872
MEAN_MOTION    = 15.49259392
ECCENTRICITY   = .0001354
INCLINATION    = 53.1593
RA_OF_ASC_NODE = 247.9779
ARG_OF_PERICENTER = 102.1521
MEAN_ANOMALY   = 59.7155

EPHEMERIS_TYPE = 0
CLASSIFICATION_TYPE = U
NORAD_CAT_ID   = 65898
ELEMENT_SET_NO = 999
REV_AT_EPOCH   = 529
BSTAR          = .10353336E-2
MEAN_MOTION_DOT = .57457E-3
MEAN_MOTION_DDOT = 0

